[{"OBJECT_NAME":"STARLINK-4109","OBJECT_ID":"2022-086AC","EPOCH":"2026-03-09T15:42:22.980960","MEAN_MOTION":15.08835634,"ECCENTRICITY":9.968e-5,"INCLINATION":53.2189,"RA_OF_ASC_NODE":194.2802,"ARG_OF_PERICENTER":89.623,"MEAN_ANOMALY":270.4877,"EPHEMERIS_TYPE":0,"CLASSIFICATION_TYPE":"U","NORAD_CAT_ID":53268,"ELEMENT_SET_NO":999,"REV_AT_EPOCH":20106,"BSTAR":3.1059593e-5,"MEAN_MOTION_DOT":2.07e-6,"MEAN_MOTION_DDOT":0},{"OBJECT_NAME":"PEGASUS DEB","OBJECT_ID":"1994-029LK","EPOCH":"2026-03-09T22:18:47.115072","MEAN_MOTION":14.54268919,"ECCENTRICITY":0.03111088,"INCLINATION":81.4299,"RA_OF_ASC_NODE":55.7262,"ARG_OF_PERICENTER":293.7836,"MEAN_ANOMALY":63.1023,"EPHEMERIS_TYPE":0,"CLASSIFICATION_TYPE":"U","NORAD_CAT_ID":24236,"ELEMENT_SET_NO":999,"REV_AT_EPOCH":52042,"BSTAR":0.0019719225,"MEAN_MOTION_DOT":0.00016098,"MEAN_MOTION_DDOT":0}]
